1 68U          19325.91319444  .00000000  00000-0  00000-0 0 00000
2 68 097.6230 188.9400 0000000 000.0000 340.5020 15.01914300000000
1 68U          19325.98611111  .00000000  00000-0  00000-0 0 00000
2 68 097.6230 189.0120 0000000 000.0000 014.2520 15.01914300000000
1 68U          19326.05555556  .00000000  00000-0  00000-0 0 00000
2 68 097.6220 189.0810 0000000 000.0000 029.2520 15.01914300000000
1 68U          19326.12708333  .00000000  00000-0  00000-0 0 00000
2 68 097.6220 189.1510 0000000 000.0000 055.5020 15.01914300000000
1 68U          19326.24861111  .00000000  00000-0  00000-0 0 00000
2 68 097.6220 189.2710 0000000 000.0000 351.7520 15.01914300000000
1 68U          19326.29305556  .00000000  00000-0  00000-0 0 00000
2 68 097.6220 189.3150 0000000 000.0000 231.7520 15.01914300000000
1 68U          19326.38055556  .00000000  00000-0  00000-0 0 00000
2 68 097.6220 189.4010 0000000 000.0000 344.2520 15.01914300000000
1 68U          19326.49930556  .00000000  00000-0  00000-0 0 00000
2 68 097.6220 189.5180 0000000 000.0000 265.5020 15.01914300000000
1 68U          19326.56527778  .00000000  00000-0  00000-0 0 00000
2 68 097.6220 189.5830 0000000 000.0000 261.7520 15.01914300000000
1 68U          19326.64583333  .00000000  00000-0  00000-0 0 00000
2 68 097.6210 189.6620 0000000 000.0000 336.7520 15.01914300000000
1 68U          19326.72708333  .00000000  00000-0  00000-0 0 00000
2 68 097.6210 189.7430 0000000 000.0000 055.5020 15.01914300000000
1 68U          19326.79652778  .00000000  00000-0  00000-0 0 00000
2 68 097.6210 189.8110 0000000 000.0000 070.5020 15.01914300000000
1 68U          19326.88888889  .00000000  00000-0  00000-0 0 00000
2 68 097.6210 189.9020 0000000 000.0000 209.2520 15.01914300000000
1 68U          19326.99305556  .00000000  00000-0  00000-0 0 00000
2 68 097.6210 190.0050 0000000 000.0000 051.7520 15.01914300000000
1 68U          19327.05277778  .00000000  00000-0  00000-0 0 00000
2 68 097.6210 190.0640 0000000 000.0000 014.2520 15.01914300000000
1 68U          19327.15138889  .00000000  00000-0  00000-0 0 00000
2 68 097.6200 190.1610 0000000 000.0000 186.7520 15.01914300000000
1 68U          19327.23680556  .00000000  00000-0  00000-0 0 00000
2 68 097.6200 190.2450 0000000 000.0000 288.0020 15.01914300000000
1 68U          19327.29652778  .00000000  00000-0  00000-0 0 00000
2 68 097.6200 190.3040 0000000 000.0000 250.5020 15.01914300000000
1 68U          19327.37638889  .00000000  00000-0  00000-0 0 00000
2 68 097.6200 190.3820 0000000 000.0000 321.7520 15.01914300000000
1 68U          19327.46250000  .00000000  00000-0  00000-0 0 00000
2 68 097.6200 190.4670 0000000 000.0000 066.7520 15.01914300000000
1 68U          19327.56458333  .00000000  00000-0  00000-0 0 00000
2 68 097.6200 190.5680 0000000 000.0000 258.0020 15.01914300000000
1 68U          19327.65138889  .00000000  00000-0  00000-0 0 00000
2 68 097.6200 190.6540 0000000 000.0000 006.7520 15.01914300000000
1 68U          19327.71458333  .00000000  00000-0  00000-0 0 00000
2 68 097.6190 190.7160 0000000 000.0000 348.0020 15.01914300000000
1 68U          19327.80972222  .00000000  00000-0  00000-0 0 00000
2 68 097.6190 190.8100 0000000 000.0000 141.7520 15.01914300000000
1 68U          19327.89305556  .00000000  00000-0  00000-0 0 00000
2 68 097.6190 190.8920 0000000 000.0000 231.7520 15.01914300000000
1 68U          19327.96597222  .00000000  00000-0  00000-0 0 00000
2 68 097.6190 190.9640 0000000 000.0000 265.5020 15.01914300000000
1 68U          19328.07500000  .00000000  00000-0  00000-0 0 00000
2 68 097.6190 191.0710 0000000 000.0000 134.2520 15.01914300000000
1 68U          19328.13611111  .00000000  00000-0  00000-0 0 00000
2 68 097.6190 191.1310 0000000 000.0000 104.2520 15.01914300000000
1 68U          19328.23680556  .00000000  00000-0  00000-0 0 00000
2 68 097.6180 191.2300 0000000 000.0000 288.0020 15.01914300000000
1 68U          19328.31388889  .00000000  00000-0  00000-0 0 00000
2 68 097.6180 191.3060 0000000 000.0000 344.2520 15.01914300000000
1 68U          19328.40486111  .00000000  00000-0  00000-0 0 00000
2 68 097.6180 191.3960 0000000 000.0000 115.5010 15.01914300000000
1 68U          19328.48680556  .00000000  00000-0  00000-0 0 00000
2 68 097.6180 191.4770 0000000 000.0000 198.0010 15.01914300000000
